[{"OBJECT_NAME":"STARLINK-2418","OBJECT_ID":"2021-027F","EPOCH":"2026-03-09T12:42:20.961792","MEAN_MOTION":15.06398346,"ECCENTRICITY":0.00011676,"INCLINATION":53.0551,"RA_OF_ASC_NODE":152.3405,"ARG_OF_PERICENTER":85.6837,"MEAN_ANOMALY":274.4285,"EPHEMERIS_TYPE":0,"CLASSIFICATION_TYPE":"U","NORAD_CAT_ID":48097,"ELEMENT_SET_NO":999,"REV_AT_EPOCH":27267,"BSTAR":-8.5535251e-5,"MEAN_MOTION_DOT":-1.555e-5,"MEAN_MOTION_DDOT":0},{"OBJECT_NAME":"COSMOS 397 DEB","OBJECT_ID":"1971-015DW","EPOCH":"2026-03-09T03:04:47.479584","MEAN_MOTION":14.84951431,"ECCENTRICITY":0.01922698,"INCLINATION":65.6672,"RA_OF_ASC_NODE":330.2096,"ARG_OF_PERICENTER":116.44,"MEAN_ANOMALY":245.6588,"EPHEMERIS_TYPE":0,"CLASSIFICATION_TYPE":"U","NORAD_CAT_ID":21723,"ELEMENT_SET_NO":999,"REV_AT_EPOCH":75672,"BSTAR":0.0022623994,"MEAN_MOTION_DOT":0.00026928,"MEAN_MOTION_DDOT":0}]
